H-2A R/B                
1 28932U 06002B   26077.91258534  .00008066  00000+0  40253-3 0  9997
2 28932  98.2424 225.7317 0052107 209.3268 150.5036 15.16616264 95830
RESURS-DK 1             
1 29228U 06021A   26077.79260842  .00002798  00000+0  16502-3 0  9994
2 29228  69.9333 213.4744 0000953 140.3222 219.8014 15.12808632 88900
CZ-4B R/B               
1 29507U 06046C   26077.84411082  .00003514  00000+0  17917-3 0  9999
2 29507  97.5573 122.7281 0031922 234.0273 125.7999 15.16994799 61438
CZ-2C R/B               
1 31114U 07010B   26077.88441946  .00000107  00000+0  68337-4 0  9992
2 31114  98.3987 190.7027 0057835 267.3507  92.1049 14.20249479981027
COSMO-SKYMED 1          
1 31598U 07023A   26077.95808637  .00002828  00000+0  25345-3 0  9997
2 31598  97.8881 269.0657 0001501  88.4270 271.7123 14.96610815 16292
COSMOS 2428             
1 31792U 07029A   26077.73807160 -.00000021  00000+0  14485-4 0  9993
2 31792  70.9440 184.3524 0009467 267.8609  92.1428 14.12947395965370
SL-16 R/B               
1 31793U 07029B   26077.98879807  .00000352  00000+0  20727-3 0  9999
2 31793  70.9756 152.8386 0002320 276.5174 256.2709 14.14838393966681
KORONAS-FOTON           
1 33504U 09003A   26077.90573316  .00011029  00000+0  24434-3 0  9995
2 33504  82.4271 266.2938 0011778 119.5437 240.6987 15.43540649947165
CZ-2C R/B               
1 37731U 11030B   26077.85995340  .00001416  00000+0  18458-3 0  9991
2 37731  97.8561  34.9405 0051655 321.9615  63.9088 14.81256020791452
H-2A R/B                
1 38341U 12025E   26077.89675997  .00002583  00000+0  23686-3 0  9996
2 38341  98.4742  45.6810 0043185 283.1732  76.4670 14.95231468749593
SHIJIAN-16 (SJ-16)      
1 39358U 13057A   26077.94730547  .00001828  00000+0  18102-3 0  9998
2 39358  74.9740 167.5640 0015275  88.7265 271.5673 14.92387062672880
SL-4 R/B                
1 39679U 14021B   26077.91248650  .00012281  00000+0  27097-3 0  9990
2 39679  51.6061 292.2751 0096724 136.5680 224.2976 15.39477098657698
