CCSDS_OMM_VERS = 2.0
CREATION_DATE  = 
ORIGINATOR     = 

OBJECT_NAME    = H-2A R/B
OBJECT_ID      = 2006-002B
CENTER_NAME    = EARTH
REF_FRAME      = TEME
TIME_SYSTEM    = UTC
MEAN_ELEMENT_THEORY = SGP/SGP4

EPOCH          = 2026-03-18T21:54:07.373376
MEAN_MOTION    = 15.16616264
ECCENTRICITY   = .00521077
INCLINATION    = 98.2424
RA_OF_ASC_NODE = 225.7317
ARG_OF_PERICENTER = 209.3268
MEAN_ANOMALY   = 150.5036

EPHEMERIS_TYPE = 0
CLASSIFICATION_TYPE = U
NORAD_CAT_ID   = 28932
ELEMENT_SET_NO = 999
REV_AT_EPOCH   = 9583
BSTAR          = .40253028E-3
MEAN_MOTION_DOT = .8066E-4
MEAN_MOTION_DDOT = 0

CCSDS_OMM_VERS = 2.0
CREATION_DATE  = 
ORIGINATOR     = 

OBJECT_NAME    = RESURS-DK 1
OBJECT_ID      = 2006-021A
CENTER_NAME    = EARTH
REF_FRAME      = TEME
TIME_SYSTEM    = UTC
MEAN_ELEMENT_THEORY = SGP/SGP4

EPOCH          = 2026-03-18T19:01:21.367488
MEAN_MOTION    = 15.12808632
ECCENTRICITY   = .00009532
INCLINATION    = 69.9333
RA_OF_ASC_NODE = 213.4744
ARG_OF_PERICENTER = 140.3222
MEAN_ANOMALY   = 219.8014

EPHEMERIS_TYPE = 0
CLASSIFICATION_TYPE = U
NORAD_CAT_ID   = 29228
ELEMENT_SET_NO = 999
REV_AT_EPOCH   = 8890
BSTAR          = .16502209E-3
MEAN_MOTION_DOT = .2798E-4
MEAN_MOTION_DDOT = 0

CCSDS_OMM_VERS = 2.0
CREATION_DATE  = 
ORIGINATOR     = 

OBJECT_NAME    = CZ-4B R/B
OBJECT_ID      = 2006-046C
CENTER_NAME    = EARTH
REF_FRAME      = TEME
TIME_SYSTEM    = UTC
MEAN_ELEMENT_THEORY = SGP/SGP4

EPOCH          = 2026-03-18T20:15:31.174848
MEAN_MOTION    = 15.16994799
ECCENTRICITY   = .0031922
INCLINATION    = 97.5573
RA_OF_ASC_NODE = 122.7281
ARG_OF_PERICENTER = 234.0273
MEAN_ANOMALY   = 125.7999

EPHEMERIS_TYPE = 0
CLASSIFICATION_TYPE = U
NORAD_CAT_ID   = 29507
ELEMENT_SET_NO = 999
REV_AT_EPOCH   = 6143
BSTAR          = .17917128E-3
MEAN_MOTION_DOT = .3514E-4
MEAN_MOTION_DDOT = 0

CCSDS_OMM_VERS = 2.0
CREATION_DATE  = 
ORIGINATOR     = 

OBJECT_NAME    = CZ-2C R/B
OBJECT_ID      = 2007-010B
CENTER_NAME    = EARTH
REF_FRAME      = TEME
TIME_SYSTEM    = UTC
MEAN_ELEMENT_THEORY = SGP/SGP4

EPOCH          = 2026-03-18T21:13:33.841344
MEAN_MOTION    = 14.20249479
ECCENTRICITY   = .00578357
INCLINATION    = 98.3987
RA_OF_ASC_NODE = 190.7027
ARG_OF_PERICENTER = 267.3507
MEAN_ANOMALY   = 92.1049

EPHEMERIS_TYPE = 0
CLASSIFICATION_TYPE = U
NORAD_CAT_ID   = 31114
ELEMENT_SET_NO = 999
REV_AT_EPOCH   = 98102
BSTAR          = .68337335E-4
MEAN_MOTION_DOT = .107E-5
MEAN_MOTION_DDOT = 0

CCSDS_OMM_VERS = 2.0
CREATION_DATE  = 
ORIGINATOR     = 

OBJECT_NAME    = COSMO-SKYMED 1
OBJECT_ID      = 2007-023A
CENTER_NAME    = EARTH
REF_FRAME      = TEME
TIME_SYSTEM    = UTC
MEAN_ELEMENT_THEORY = SGP/SGP4

EPOCH          = 2026-03-18T22:59:38.662368
MEAN_MOTION    = 14.96610815
ECCENTRICITY   = .00015019
INCLINATION    = 97.8881
RA_OF_ASC_NODE = 269.0657
ARG_OF_PERICENTER = 88.4270
MEAN_ANOMALY   = 271.7123

EPHEMERIS_TYPE = 0
CLASSIFICATION_TYPE = U
NORAD_CAT_ID   = 31598
ELEMENT_SET_NO = 999
REV_AT_EPOCH   = 1629
BSTAR          = .25344659E-3
MEAN_MOTION_DOT = .2828E-4
MEAN_MOTION_DDOT = 0

CCSDS_OMM_VERS = 2.0
CREATION_DATE  = 
ORIGINATOR     = 

OBJECT_NAME    = COSMOS 2428
OBJECT_ID      = 2007-029A
CENTER_NAME    = EARTH
REF_FRAME      = TEME
TIME_SYSTEM    = UTC
MEAN_ELEMENT_THEORY = SGP/SGP4

EPOCH          = 2026-03-18T17:42:49.386240
MEAN_MOTION    = 14.12947395
ECCENTRICITY   = .00094672
INCLINATION    = 70.9440
RA_OF_ASC_NODE = 184.3524
ARG_OF_PERICENTER = 267.8609
MEAN_ANOMALY   = 92.1428

EPHEMERIS_TYPE = 0
CLASSIFICATION_TYPE = U
NORAD_CAT_ID   = 31792
ELEMENT_SET_NO = 999
REV_AT_EPOCH   = 96537
BSTAR          = .14484753E-4
MEAN_MOTION_DOT = -.21E-6
MEAN_MOTION_DDOT = 0

CCSDS_OMM_VERS = 2.0
CREATION_DATE  = 
ORIGINATOR     = 

OBJECT_NAME    = SL-16 R/B
OBJECT_ID      = 2007-029B
CENTER_NAME    = EARTH
REF_FRAME      = TEME
TIME_SYSTEM    = UTC
MEAN_ELEMENT_THEORY = SGP/SGP4

EPOCH          = 2026-03-18T23:43:52.153248
MEAN_MOTION    = 14.14838393
ECCENTRICITY   = .00023206
INCLINATION    = 70.9756
RA_OF_ASC_NODE = 152.8386
ARG_OF_PERICENTER = 276.5174
MEAN_ANOMALY   = 256.2709

EPHEMERIS_TYPE = 0
CLASSIFICATION_TYPE = U
NORAD_CAT_ID   = 31793
ELEMENT_SET_NO = 999
REV_AT_EPOCH   = 96668
BSTAR          = .20727427E-3
MEAN_MOTION_DOT = .352E-5
MEAN_MOTION_DDOT = 0

CCSDS_OMM_VERS = 2.0
CREATION_DATE  = 
ORIGINATOR     = 

OBJECT_NAME    = KORONAS-FOTON
OBJECT_ID      = 2009-003A
CENTER_NAME    = EARTH
REF_FRAME      = TEME
TIME_SYSTEM    = UTC
MEAN_ELEMENT_THEORY = SGP/SGP4

EPOCH          = 2026-03-18T21:44:15.345024
MEAN_MOTION    = 15.43540649
ECCENTRICITY   = .0011778
INCLINATION    = 82.4271
RA_OF_ASC_NODE = 266.2938
ARG_OF_PERICENTER = 119.5437
MEAN_ANOMALY   = 240.6987

EPHEMERIS_TYPE = 0
CLASSIFICATION_TYPE = U
NORAD_CAT_ID   = 33504
ELEMENT_SET_NO = 999
REV_AT_EPOCH   = 94716
BSTAR          = .24433771E-3
MEAN_MOTION_DOT = .11029E-3
MEAN_MOTION_DDOT = 0

CCSDS_OMM_VERS = 2.0
CREATION_DATE  = 
ORIGINATOR     = 

OBJECT_NAME    = CZ-2C R/B
OBJECT_ID      = 2011-030B
CENTER_NAME    = EARTH
REF_FRAME      = TEME
TIME_SYSTEM    = UTC
MEAN_ELEMENT_THEORY = SGP/SGP4

EPOCH          = 2026-03-18T20:38:19.973760
MEAN_MOTION    = 14.81256020
ECCENTRICITY   = .00516551
INCLINATION    = 97.8561
RA_OF_ASC_NODE = 34.9405
ARG_OF_PERICENTER = 321.9615
MEAN_ANOMALY   = 63.9088

EPHEMERIS_TYPE = 0
CLASSIFICATION_TYPE = U
NORAD_CAT_ID   = 37731
ELEMENT_SET_NO = 999
REV_AT_EPOCH   = 79145
BSTAR          = .18457518E-3
MEAN_MOTION_DOT = .1416E-4
MEAN_MOTION_DDOT = 0

CCSDS_OMM_VERS = 2.0
CREATION_DATE  = 
ORIGINATOR     = 

OBJECT_NAME    = H-2A R/B
OBJECT_ID      = 2012-025E
CENTER_NAME    = EARTH
REF_FRAME      = TEME
TIME_SYSTEM    = UTC
MEAN_ELEMENT_THEORY = SGP/SGP4

EPOCH          = 2026-03-18T21:31:20.061408
MEAN_MOTION    = 14.95231468
ECCENTRICITY   = .00431853
INCLINATION    = 98.4742
RA_OF_ASC_NODE = 45.6810
ARG_OF_PERICENTER = 283.1732
MEAN_ANOMALY   = 76.4670

EPHEMERIS_TYPE = 0
CLASSIFICATION_TYPE = U
NORAD_CAT_ID   = 38341
ELEMENT_SET_NO = 999
REV_AT_EPOCH   = 74959
BSTAR          = .2368573E-3
MEAN_MOTION_DOT = .2583E-4
MEAN_MOTION_DDOT = 0

CCSDS_OMM_VERS = 2.0
CREATION_DATE  = 
ORIGINATOR     = 

OBJECT_NAME    = SHIJIAN-16 (SJ-16)
OBJECT_ID      = 2013-057A
CENTER_NAME    = EARTH
REF_FRAME      = TEME
TIME_SYSTEM    = UTC
MEAN_ELEMENT_THEORY = SGP/SGP4

EPOCH          = 2026-03-18T22:44:07.192608
MEAN_MOTION    = 14.92387062
ECCENTRICITY   = .00152758
INCLINATION    = 74.9740
RA_OF_ASC_NODE = 167.5640
ARG_OF_PERICENTER = 88.7265
MEAN_ANOMALY   = 271.5673

EPHEMERIS_TYPE = 0
CLASSIFICATION_TYPE = U
NORAD_CAT_ID   = 39358
ELEMENT_SET_NO = 999
REV_AT_EPOCH   = 67288
BSTAR          = .18101903E-3
MEAN_MOTION_DOT = .1828E-4
MEAN_MOTION_DDOT = 0

CCSDS_OMM_VERS = 2.0
CREATION_DATE  = 
ORIGINATOR     = 

OBJECT_NAME    = SL-4 R/B
OBJECT_ID      = 2014-021B
CENTER_NAME    = EARTH
REF_FRAME      = TEME
TIME_SYSTEM    = UTC
MEAN_ELEMENT_THEORY = SGP/SGP4

EPOCH          = 2026-03-18T21:53:58.833600
MEAN_MOTION    = 15.39477098
ECCENTRICITY   = .00967243
INCLINATION    = 51.6061
RA_OF_ASC_NODE = 292.2751
ARG_OF_PERICENTER = 136.5680
MEAN_ANOMALY   = 224.2976

EPHEMERIS_TYPE = 0
CLASSIFICATION_TYPE = U
NORAD_CAT_ID   = 39679
ELEMENT_SET_NO = 999
REV_AT_EPOCH   = 65769
BSTAR          = .27097073E-3
MEAN_MOTION_DOT = .12281E-3
MEAN_MOTION_DDOT = 0

